OBJECT_NAME,OBJECT_ID,EPOCH,MEAN_MOTION,ECCENTRICITY,INCLINATION,RA_OF_ASC_NODE,ARG_OF_PERICENTER,MEAN_ANOMALY,EPHEMERIS_TYPE,CLASSIFICATION_TYPE,NORAD_CAT_ID,ELEMENT_SET_NO,REV_AT_EPOCH,BSTAR,MEAN_MOTION_DOT,MEAN_MOTION_DDOT
STARLINK-5989,2023-078Q,2025-10-02T00:52:35.753952,14.98333427,0.0003119,70.0014,24.5559,268.5214,91.5588,0,U,56781,999,12891,-6.6006e-05,-8.81e-06,0.0
STARLINK-6352,2023-078R,2025-10-01T22:58:06.934944,14.98325063,0.0002484,70.0024,4.8115,267.3158,92.7717,0,U,56782,999,12939,-9.579e-05,-1.235e-05,0.0
STARLINK-6357,2023-078S,2025-10-02T05:10:37.676640,14.98328709,0.0002899,70.001,4.1094,265.8639,94.2188,0,U,56783,999,12943,-0.00013996,-1.762e-05,0.0
STARLINK-6354,2023-078T,2025-10-01T22:52:07.440096,14.98319537,0.0003077,70.001,4.797,266.3429,93.7378,0,U,56784,999,12939,-0.00010934,-1.397e-05,0.0
STARLINK-5931,2023-078U,2025-10-02T01:04:37.486848,14.98329816,0.0002544,70.0017,24.5843,269.9734,90.1133,0,U,56785,999,12960,-2.1345e-05,-3.48e-06,0.0
STARLINK-6341,2023-078V,2025-10-01T16:15:32.239872,14.98329275,0.00027365,70.0017,5.442,266.9327,93.1519,0,U,56786,999,12935,-7.5852077e-05,-9.98e-06,0.0
STARLINK-6326,2023-078W,2025-10-01T23:40:08.560416,14.98331359,0.0003116,70.0011,4.5133,271.4125,88.6677,0,U,56787,999,12940,-4.8177e-05,-6.68e-06,0.0
STARLINK-6336,2023-078X,2025-10-01T16:09:29.631168,14.98351913,0.00025642,70.0018,5.4257,265.6289,94.4577,0,U,56788,999,12935,0.00017238251,1.966e-05,0.0
STARLINK-6345,2023-078Z,2025-10-01T22:09:42.350112,14.98322905,0.0002787,70.0014,344.8123,264.3165,95.7676,0,U,56790,999,12988,-1.0663e-05,-2.2e-06,0.0
STARLINK-5977,2023-078AA,2025-10-02T00:10:31.247904,14.98332051,0.0002541,70.0023,24.4543,271.7834,88.3034,0,U,56791,999,12891,5.0372e-05,5.08e-06,0.0
STARLINK-6046,2023-078AB,2025-10-01T17:09:57.223296,14.98323109,0.00029962,70.0014,25.4394,263.8061,96.2757,0,U,56792,999,12886,5.8239055e-05,6.02e-06,0.0
STARLINK-6052,2023-078AC,2025-10-02T00:34:33.968064,14.98327049,0.0002774,70.0021,24.5127,268.604,91.4801,0,U,56793,999,12891,-4.6184e-05,-6.44e-06,0.0
STARLINK-6060,2023-078AD,2025-10-01T23:58:11.033184,14.98326872,0.0003035,70.0007,4.5563,277.3432,82.7382,0,U,56794,999,12940,-0.00012938,-1.636e-05,0.0
STARLINK-6061,2023-078AE,2025-10-01T23:22:20.589024,14.98337907,0.0003017,70.0015,4.4672,252.2702,107.8128,0,U,56795,999,12940,-1.7095e-06,-1.13e-06,0.0
STARLINK-6049,2023-078AF,2025-10-02T00:58:36.016032,14.98333434,0.0003508,70.0005,24.5707,268.0406,92.0352,0,U,56796,999,12891,-4.944e-05,-6.83e-06,0.0
STARLINK-6058,2023-078AG,2025-10-02T01:16:39.174816,14.98318684,0.0003212,69.9997,24.6058,262.1342,97.9452,0,U,56797,999,12891,0.00047401,5.566e-05,0.0
STARLINK-5953,2023-078AJ,2025-10-02T00:40:33.461184,14.98335964,0.0002776,70.0021,24.522,265.1873,94.8969,0,U,56799,999,12891,-7.7241e-06,-1.85e-06,0.0
STARLINK-6036,2023-078AK,2025-10-02T00:46:35.046048,14.9833449,0.0003022,70.0015,24.5409,264.9896,95.0918,0,U,56800,999,12891,-0.00013024,-1.647e-05,0.0
STARLINK-6087,2023-078AL,2025-10-01T23:34:08.857344,14.98314256,0.0003141,70.0016,4.4967,269.649,90.4309,0,U,56801,999,12940,-0.00017797,-2.215e-05,0.0
STARLINK-6070,2023-078AM,2025-10-01T23:58:26.715648,14.98310972,0.000387,70.0006,4.5617,268.109,91.9626,0,U,56802,999,12940,-0.00020892,-2.584e-05,0.0
STARLINK-6029,2023-078AN,2025-10-02T00:28:32.848032,14.98339009,0.0002804,70.0017,24.4963,268.3769,91.7068,0,U,56803,999,12891,-0.0001908,-2.369e-05,0.0
STARLINK-6069,2023-078AP,2025-10-01T23:46:09.265728,14.98329552,0.0003124,70.0003,4.5259,271.6348,88.4453,0,U,56804,999,13007,-3.9424e-05,-5.63e-06,0.0
STARLINK-6064,2023-078AQ,2025-10-01T23:52:10.103232,14.98331261,0.0002916,70.001,4.5386,273.6844,86.3982,0,U,56805,999,12940,-0.00014209,-1.788e-05,0.0
STARLINK-6072,2023-078AR,2025-10-01T13:20:56.552640,14.98327718,0.00029914,69.9995,345.5354,267.8812,92.2004,0,U,56806,999,12982,-3.4668254e-05,-5.07e-06,0.0
STARLINK-6073,2023-078AS,2025-10-01T23:22:06.992256,14.98351583,0.0002968,70.0029,4.4682,255.1777,104.9053,0,U,56807,999,12940,-0.00053104,-6.427e-05,0.0
STARLINK-6042,2023-078AT,2025-10-02T02:42:33.288192,14.98353314,0.0001512,69.9977,314.3662,274.8694,85.2292,0,U,56808,999,13066,0.00021967,2.531e-05,0.0
STARLINK-6040,2023-078AU,2025-10-01T14:21:41.531040,14.98330026,0.00032628,70.0011,25.4329,272.7018,87.3768,0,U,56809,999,12885,0.0003327739,3.88e-05,0.0
STARLINK-6031,2023-078AV,2025-10-02T00:22:32.422656,14.98338618,0.0002273,70.0026,24.4812,270.7491,89.3407,0,U,56810,999,12891,-0.00021202,-2.622e-05,0.0
STARLINK-6063,2023-078AW,2025-10-02T03:52:09.922080,14.98326839,0.0002929,69.9998,344.033,267.895,92.1874,0,U,56811,999,12992,-5.7644e-05,-7.81e-06,0.0
STARLINK-6065,2023-078AX,2025-10-01T23:34:22.728000,14.9832042,0.0002956,70.0005,4.5029,261.8879,98.1944,0,U,56812,999,12940,5.132e-05,5.19e-06,0.0
