STARLINK-5989           
1 56781U 23078Q   25275.03652493 -.00000881  00000+0 -66006-4 0  9990
2 56781  70.0014  24.5559 0003119 268.5214  91.5588 14.98333427128914
STARLINK-6352           
1 56782U 23078R   25274.95702471 -.00001235  00000+0 -95790-4 0  9999
2 56782  70.0024   4.8115 0002484 267.3158  92.7717 14.98325063129390
STARLINK-6357           
1 56783U 23078S   25275.21571385 -.00001762  00000+0 -13996-3 0  9990
2 56783  70.0010   4.1094 0002899 265.8639  94.2188 14.98328709129436
STARLINK-6354           
1 56784U 23078T   25274.95286389 -.00001397  00000+0 -10934-3 0  9991
2 56784  70.0010   4.7970 0003077 266.3429  93.7378 14.98319537129397
STARLINK-5931           
1 56785U 23078U   25275.04487832 -.00000348  00000+0 -21345-4 0  9993
2 56785  70.0017  24.5843 0002544 269.9734  90.1133 14.98329816129605
STARLINK-6341           
1 56786U 23078V   25274.67745648 -.00000998  00000+0 -75852-4 0  9997
2 56786  70.0017   5.4420 0002736 266.9327  93.1519 14.98329275129355
STARLINK-6326           
1 56787U 23078W   25274.98621019 -.00000668  00000+0 -48177-4 0  9991
2 56787  70.0011   4.5133 0003116 271.4125  88.6677 14.98331359129407
STARLINK-6336           
1 56788U 23078X   25274.67325962  .00001966  00000+0  17238-3 0  9999
2 56788  70.0018   5.4257 0002564 265.6289  94.4577 14.98351913129350
STARLINK-6345           
1 56790U 23078Z   25274.92340683 -.00000220  00000+0 -10663-4 0  9997
2 56790  70.0014 344.8123 0002787 264.3165  95.7676 14.98322905129888
STARLINK-5977           
1 56791U 23078AA  25275.00730611  .00000508  00000+0  50372-4 0  9990
2 56791  70.0023  24.4543 0002541 271.7834  88.3034 14.98332051128911
STARLINK-6046           
1 56792U 23078AB  25274.71524564  .00000602  00000+0  58239-4 0  9991
2 56792  70.0014  25.4394 0002996 263.8061  96.2757 14.98323109128863
STARLINK-6052           
1 56793U 23078AC  25275.02400426 -.00000644  00000+0 -46184-4 0  9991
2 56793  70.0021  24.5127 0002774 268.6040  91.4801 14.98327049128910
STARLINK-6060           
1 56794U 23078AD  25274.99873881 -.00001636  00000+0 -12938-3 0  9997
2 56794  70.0007   4.5563 0003035 277.3432  82.7382 14.98326872129405
STARLINK-6061           
1 56795U 23078AE  25274.97384941 -.00000113  00000+0 -17095-5 0  9990
2 56795  70.0015   4.4672 0003017 252.2702 107.8128 14.98337907129405
STARLINK-6049           
1 56796U 23078AF  25275.04069463 -.00000683  00000+0 -49440-4 0  9999
2 56796  70.0005  24.5707 0003508 268.0406  92.0352 14.98333434128918
STARLINK-6058           
1 56797U 23078AG  25275.05323119  .00005566  00000+0  47401-3 0  9999
2 56797  69.9997  24.6058 0003212 262.1342  97.9452 14.98318684128917
STARLINK-5953           
1 56799U 23078AJ  25275.02816506 -.00000185  00000+0 -77241-5 0  9996
2 56799  70.0021  24.5220 0002776 265.1873  94.8969 14.98335964128915
STARLINK-6036           
1 56800U 23078AK  25275.03235007 -.00001647  00000+0 -13024-3 0  9992
2 56800  70.0015  24.5409 0003022 264.9896  95.0918 14.98334490128917
STARLINK-6087           
1 56801U 23078AL  25274.98204696 -.00002215  00000+0 -17797-3 0  9999
2 56801  70.0016   4.4967 0003141 269.6490  90.4309 14.98314256129405
STARLINK-6070           
1 56802U 23078AM  25274.99892032 -.00002584  00000+0 -20892-3 0  9997
2 56802  70.0006   4.5617 0003870 268.1090  91.9626 14.98310972129406
STARLINK-6029           
1 56803U 23078AN  25275.01982463 -.00002369  00000+0 -19080-3 0  9998
2 56803  70.0017  24.4963 0002804 268.3769  91.7068 14.98339009128910
STARLINK-6069           
1 56804U 23078AP  25274.99038502 -.00000563  00000+0 -39424-4 0  9990
2 56804  70.0003   4.5259 0003124 271.6348  88.4453 14.98329552130072
STARLINK-6064           
1 56805U 23078AQ  25274.99456138 -.00001788  00000+0 -14209-3 0  9993
2 56805  70.0010   4.5386 0002916 273.6844  86.3982 14.98331261129402
STARLINK-6072           
1 56806U 23078AR  25274.55621010 -.00000507  00000+0 -34668-4 0  9999
2 56806  69.9995 345.5354 0002991 267.8812  92.2004 14.98327718129827
STARLINK-6073           
1 56807U 23078AS  25274.97369204 -.00006427  00000+0 -53104-3 0  9992
2 56807  70.0029   4.4682 0002968 255.1777 104.9053 14.98351583129404
STARLINK-6042           
1 56808U 23078AT  25275.11288528  .00002531  00000+0  21967-3 0  9991
2 56808  69.9977 314.3662 0001512 274.8694  85.2292 14.98353314130665
STARLINK-6040           
1 56809U 23078AU  25274.59839735  .00003880  00000+0  33277-3 0  9990
2 56809  70.0011  25.4329 0003262 272.7018  87.3768 14.98330026128853
STARLINK-6031           
1 56810U 23078AV  25275.01565304 -.00002622  00000+0 -21202-3 0  9998
2 56810  70.0026  24.4812 0002273 270.7491  89.3407 14.98338618128915
STARLINK-6063           
1 56811U 23078AW  25275.16122595 -.00000781  00000+0 -57644-4 0  9990
2 56811  69.9998 344.0330 0002929 267.8950  92.1874 14.98326839129926
STARLINK-6065           
1 56812U 23078AX  25274.98220750  .00000519  00000+0  51320-4 0  9994
2 56812  70.0005   4.5029 0002956 261.8879  98.1944 14.98320420129403
